{
  "type": "FeatureCollection",
  "features": [
    {
      "type": "Feature",
      "properties": {
        "norad_id": 36828,
        "name": "BEIDOU-2 IGSO-1 (C06)",
        "group": "beidou",
        "lat": -53.716871857247554,
        "lon": 85.78389569412772,
        "alt_km": 35684.11414740235,
        "timestamp": "2025-12-09T16:56:36.839640+00:00",
        "meta_object_name": "BEIDOU-2 IGSO-1 (C06)",
        "meta_object_id": "2010-036A",
        "meta_epoch": "2025-12-09T10:39:31.929984",
        "meta_mean_motion": 1.00277193,
        "meta_eccentricity": 0.0051253,
        "meta_inclination": 54.2848,
        "meta_ra_of_asc_node": 164.6772,
        "meta_arg_of_pericenter": 215.9066,
        "meta_mean_anomaly": 325.5876,
        "meta_ephemeris_type": 0,
        "meta_classification_type": "U",
        "meta_norad_cat_id": 36828,
        "meta_element_set_no": 999,
        "meta_rev_at_epoch": 5619,
        "meta_bstar": 0,
        "meta_mean_motion_dot": -6.8e-07,
        "meta_mean_motion_ddot": 0,
        "tle_line1": "1 36828U 10036A   25343.44411956 -.00000068  00000+0  00000+0 0  9991",
        "tle_line2": "2 36828  54.2848 164.6772 0051253 215.9066 325.5876  1.00277193 56195"
      },
      "geometry": {
        "type": "Point",
        "coordinates": [
          85.78389569412772,
          -53.716871857247554
        ]
      }
    },
    {
      "type": "Feature",
      "properties": {
        "norad_id": 37210,
        "name": "BEIDOU-2 G4 (C04)",
        "group": "beidou",
        "lat": 2.8390561183727043,
        "lon": 132.78237372190887,
        "alt_km": 35813.833805437556,
        "timestamp": "2025-12-09T16:56:36.839663+00:00",
        "meta_object_name": "BEIDOU-2 G4 (C04)",
        "meta_object_id": "2010-057A",
        "meta_epoch": "2025-12-09T13:32:17.166048",
        "meta_mean_motion": 1.0027127,
        "meta_eccentricity": 0.0010994,
        "meta_inclination": 3.1766,
        "meta_ra_of_asc_node": 69.9406,
        "meta_arg_of_pericenter": 189.8527,
        "meta_mean_anomaly": 181.9043,
        "meta_ephemeris_type": 0,
        "meta_classification_type": "U",
        "meta_norad_cat_id": 37210,
        "meta_element_set_no": 999,
        "meta_rev_at_epoch": 5539,
        "meta_bstar": 0,
        "meta_mean_motion_dot": -1.1e-06,
        "meta_mean_motion_ddot": 0,
        "tle_line1": "1 37210U 10057A   25343.56408757 -.00000110  00000+0  00000+0 0  9996",
        "tle_line2": "2 37210   3.1766  69.9406 0010994 189.8527 181.9043  1.00271270 55393"
      },
      "geometry": {
        "type": "Point",
        "coordinates": [
          132.78237372190887,
          2.8390561183727043
        ]
      }
    },
    {
      "type": "Feature",
      "properties": {
        "norad_id": 37256,
        "name": "BEIDOU-2 IGSO-2 (C07)",
        "group": "beidou",
        "lat": 10.547132296206383,
        "lon": 84.491163631046,
        "alt_km": 35648.05589754266,
        "timestamp": "2025-12-09T16:56:36.839678+00:00",
        "meta_object_name": "BEIDOU-2 IGSO-2 (C07)",
        "meta_object_id": "2010-068A",
        "meta_epoch": "2025-12-03T17:22:36.027840",
        "meta_mean_motion": 1.0028872,
        "meta_eccentricity": 0.00492449,
        "meta_inclination": 47.9042,
        "meta_ra_of_asc_node": 274.2614,
        "meta_arg_of_pericenter": 216.1411,
        "meta_mean_anomaly": 310.24,
        "meta_ephemeris_type": 0,
        "meta_classification_type": "U",
        "meta_norad_cat_id": 37256,
        "meta_element_set_no": 999,
        "meta_rev_at_epoch": 5483,
        "meta_bstar": 0,
        "meta_mean_motion_dot": -2.25e-06,
        "meta_mean_motion_ddot": 0,
        "tle_line1": "1 37256U 10068A   25337.72402810 -.00000225  00000+0  00000+0 0  9990",
        "tle_line2": "2 37256  47.9042 274.2614 0049244 216.1411 310.2400  1.00288720 54834"
      },
      "geometry": {
        "type": "Point",
        "coordinates": [
          84.491163631046,
          10.547132296206383
        ]
      }
    },
    {
      "type": "Feature",
      "properties": {
        "norad_id": 37384,
        "name": "BEIDOU-2 IGSO-3 (C08)",
        "group": "beidou",
        "lat": 33.17413823481402,
        "lon": 62.17955543389452,
        "alt_km": 35910.563998551406,
        "timestamp": "2025-12-09T16:56:36.839692+00:00",
        "meta_object_name": "BEIDOU-2 IGSO-3 (C08)",
        "meta_object_id": "2011-013A",
        "meta_epoch": "2025-12-07T14:00:04.361184",
        "meta_mean_motion": 1.00271435,
        "meta_eccentricity": 0.0035334,
        "meta_inclination": 62.1366,
        "meta_ra_of_asc_node": 41.9657,
        "meta_arg_of_pericenter": 187.0632,
        "meta_mean_anomaly": 165.2408,
        "meta_ephemeris_type": 0,
        "meta_classification_type": "U",
        "meta_norad_cat_id": 37384,
        "meta_element_set_no": 999,
        "meta_rev_at_epoch": 5373,
        "meta_bstar": 0,
        "meta_mean_motion_dot": -1.91e-06,
        "meta_mean_motion_ddot": 0,
        "tle_line1": "1 37384U 11013A   25341.58338381 -.00000191  00000+0  00000+0 0  9995",
        "tle_line2": "2 37384  62.1366  41.9657 0035334 187.0632 165.2408  1.00271435 53735"
      },
      "geometry": {
        "type": "Point",
        "coordinates": [
          62.17955543389452,
          33.17413823481402
        ]
      }
    },
    {
      "type": "Feature",
      "properties": {
        "norad_id": 37763,
        "name": "BEIDOU-2 IGSO-4 (C09)",
        "group": "beidou",
        "lat": -53.47157830607715,
        "lon": 61.51067276260876,
        "alt_km": 35244.507836821846,
        "timestamp": "2025-12-09T16:56:36.839705+00:00",
        "meta_object_name": "BEIDOU-2 IGSO-4 (C09)",
        "meta_object_id": "2011-038A",
        "meta_epoch": "2025-12-01T12:32:09.960864",
        "meta_mean_motion": 1.00284084,
        "meta_eccentricity": 0.01488084,
        "meta_inclination": 54.5806,
        "meta_ra_of_asc_node": 167.4476,
        "meta_arg_of_pericenter": 230.2017,
        "meta_mean_anomaly": 315.0405,
        "meta_ephemeris_type": 0,
        "meta_classification_type": "U",
        "meta_norad_cat_id": 37763,
        "meta_element_set_no": 999,
        "meta_rev_at_epoch": 5266,
        "meta_bstar": 0,
        "meta_mean_motion_dot": 1.01e-06,
        "meta_mean_motion_ddot": 0,
        "tle_line1": "1 37763U 11038A   25335.52233751  .00000101  00000+0  00000+0 0  9995",
        "tle_line2": "2 37763  54.5806 167.4476 0148808 230.2017 315.0405  1.00284084 52669"
      },
      "geometry": {
        "type": "Point",
        "coordinates": [
          61.51067276260876,
          -53.47157830607715
        ]
      }
    },
    {
      "type": "Feature",
      "properties": {
        "norad_id": 37948,
        "name": "BEIDOU-2 IGSO-5 (C10)",
        "group": "beidou",
        "lat": 21.439850659902447,
        "lon": 73.21465487777236,
        "alt_km": 35626.56587842926,
        "timestamp": "2025-12-09T16:56:36.839718+00:00",
        "meta_object_name": "BEIDOU-2 IGSO-5 (C10)",
        "meta_object_id": "2011-073A",
        "meta_epoch": "2025-12-07T19:12:14.882400",
        "meta_mean_motion": 1.00291658,
        "meta_eccentricity": 0.01104068,
        "meta_inclination": 48.0298,
        "meta_ra_of_asc_node": 273.9181,
        "meta_arg_of_pericenter": 222.1784,
        "meta_mean_anomaly": 321.4594,
        "meta_ephemeris_type": 0,
        "meta_classification_type": "U",
        "meta_norad_cat_id": 37948,
        "meta_element_set_no": 999,
        "meta_rev_at_epoch": 5121,
        "meta_bstar": 0,
        "meta_mean_motion_dot": -1.91e-06,
        "meta_mean_motion_ddot": 0,
        "tle_line1": "1 37948U 11073A   25341.80017225 -.00000191  00000+0  00000+0 0  9993",
        "tle_line2": "2 37948  48.0298 273.9181 0110406 222.1784 321.4594  1.00291658 51212"
      },
      "geometry": {
        "type": "Point",
        "coordinates": [
          73.21465487777236,
          21.439850659902447
        ]
      }
    },
    {
      "type": "Feature",
      "properties": {
        "norad_id": 38091,
        "name": "BEIDOU-2 G5 (C05)",
        "group": "beidou",
        "lat": -1.9365031026901147,
        "lon": 31.779289171681313,
        "alt_km": 35790.13676880006,
        "timestamp": "2025-12-09T16:56:36.839731+00:00",
        "meta_object_name": "BEIDOU-2 G5 (C05)",
        "meta_object_id": "2012-008A",
        "meta_epoch": "2025-12-09T12:08:23.418240",
        "meta_mean_motion": 1.00274244,
        "meta_eccentricity": 0.001252,
        "meta_inclination": 3.101,
        "meta_ra_of_asc_node": 70.7112,
        "meta_arg_of_pericenter": 226.3048,
        "meta_mean_anomaly": 22.3247,
        "meta_ephemeris_type": 0,
        "meta_classification_type": "U",
        "meta_norad_cat_id": 38091,
        "meta_element_set_no": 999,
        "meta_rev_at_epoch": 5046,
        "meta_bstar": 0,
        "meta_mean_motion_dot": 5.8e-07,
        "meta_mean_motion_ddot": 0,
        "tle_line1": "1 38091U 12008A   25343.50582660  .00000058  00000+0  00000+0 0  9992",
        "tle_line2": "2 38091   3.1010  70.7112 0012520 226.3048  22.3247  1.00274244 50460"
      },
      "geometry": {
        "type": "Point",
        "coordinates": [
          31.779289171681313,
          -1.9365031026901147
        ]
      }
    }
  ]
}